#aV2008  1 31  0  0   .00000000      96 DD+AD WGS84 FIT  NGA
## 1464 345600.00000000   900.00000000 54496  .0000000000000
+   31     1  2  3  4  5  6  8  9 10 11 12 13 14 15 16 17 18
+         19 20 21 22 23 24 25 26 27 28 29 30 31 32  0  0  0
+          0  0  0  0  0  0  0  0  0  0  0  0  0  0  0  0  0
+          0  0  0  0  0  0  0  0  0  0  0  0  0  0  0  0  0
+          0  0  0  0  0  0  0  0  0  0  0  0  0  0  0  0  0
++         0  0  0  0  0  0  0  0  0  0  0  0  0  0  0  0  0
++         0  0  0  0  0  0  0  0  0  0  0  0  0  0  0  0  0
++         0  0  0  0  0  0  0  0  0  0  0  0  0  0  0  0  0
++         0  0  0  0  0  0  0  0  0  0  0  0  0  0  0  0  0
++         0  0  0  0  0  0  0  0  0  0  0  0  0  0  0  0  0
%c cc cc ccc ccc cccc cccc cccc cccc ccccc ccccc ccccc ccccc
%c cc cc ccc ccc cccc cccc cccc cccc ccccc ccccc ccccc ccccc
%f  0.0000000  0.000000000  0.00000000000  0.000000000000000
%f  0.0000000  0.000000000  0.00000000000  0.000000000000000
%i    0    0    0    0      0      0      0      0         0
%i    0    0    0    0      0      0      0      0         0
/*      NGA, ST. LOUIS,MO.                                  
/*   EPHEMERIS COMPUTED FROM  3 DAYS OF DATA                
/* CCCCCCCCCCCCCCCCCCCCCCCCCCCCCCCCCCCCCCCCCCCCCCCCCCCCCCCCC
/* CCCCCCCCCCCCCCCCCCCCCCCCCCCCCCCCCCCCCCCCCCCCCCCCCCCCCCCCC
*  2008  1 31 14 45   .00000000                                                 
P  1   8566.711223  15063.360573  20369.368059    182.673119                    
V  1 -25005.165516  -3746.596150  13363.743695       .025211                    
P  2 -12937.802025 -23146.512388  -3613.199443    170.649996                    
V  2   1028.911391  -5175.543797  30726.051305       .030248                    
P  3  18892.965616  11661.114742 -15072.850500    180.685897                    
V  3 -18712.532763   2160.420309 -21801.687017       .053754                    
P  4  -4285.823603 -24850.802040   7623.476195     -1.103342                    
V  4   7000.792463   7848.236518  29528.771713      -.061841                    
P  5 -19112.859123  11819.310849  13784.826579    670.226489                    
V  5   7137.309489 -16807.744870  23994.612209       .157199                    
P  6 -17397.847810  10982.830908 -16673.901735     -1.559622                    
V  6 -21283.780257  -4024.902728  19313.604273       .197371                    
P  8   2739.056993 -21583.937441 -14987.681040   -139.161663                    
V  8   8308.589155  17214.146054 -23860.563095      -.014543                    
P  9 -17139.035723  -6143.424885  18785.525357    108.302548                    
V  9  -9494.737459 -23255.571118 -15590.439405       .017111                    
P 10 -10170.286016 -11448.167037 -21802.042710   -230.171278                    
V 10  17326.243485 -21228.398133   3410.008981      -.137408                    
P 11  18928.523979   1436.842879  18538.462987     27.040693                    
V 11  11614.289775  21146.101616 -13064.732244      -.000280                    
P 12 -19383.614019   5814.483337  17254.941398   -355.506266                    
V 12  11725.192314 -18401.652474  19550.529064      -.008635                    
P 13  19781.622392  -7387.280693 -16198.472878    237.476767                    
V 13  19853.473079   4457.346739  22385.666682       .022012                    
P 14  -3384.293948  14280.120340  22236.020594   -301.314504                    
V 14 -27589.985496  -4211.262339  -1589.025078       .029712                    
P 15 -25025.683673  -6789.525573  -5706.065291    -73.842597                    
V 15   7552.115298  -2017.561030 -30574.525533      -.020838                    
P 16   6132.817088  15392.211525 -20646.073382    132.580259                    
V 16 -16970.483007  20261.240964  10199.114210       .004089                    
P 17   4074.816332 -14796.410667  21691.503522     43.362211                    
V 17  27231.142959   3877.903686  -2621.820203      -.006731                    
P 18 -17908.624295  19165.686401  -2542.649982   -208.046413                    
V 18   -499.391400  -4876.868842 -31514.153759       .029260                    
P 19  24832.493711   8264.980684  -4934.787968     18.957575                    
V 19  -6743.338620   1495.379044 -30744.876417       .015100                    
P 20  19813.207670  -8603.999121  15310.806141    121.487905                    
V 20  -9713.893497  17282.942635  22170.155690      -.007551                    
P 21  -9602.272257  14791.362782 -19529.711304     72.607880                    
V 21 -10941.664760 -22993.607024 -12531.526091      -.007167                    
P 22  -9101.347529  22755.706945  10345.438220    207.819847                    
V 22 -10422.664738   8189.930872 -27636.088285       .004345                    
P 23  26386.606282    491.850877  -4013.965345    330.573837                    
V 23   4666.034161   2838.791242  31297.927420       .029132                    
P 24 -15388.274244   2056.061789 -21350.752535     66.849288                    
V 24  -8989.584531 -26077.569254   4220.651937       .030104                    
P 25  12464.111349  -8425.578023 -21521.955380    506.172758                    
V 25  13549.922526  24739.132172  -1642.078306       .044551                    
P 26 -23449.184290  -9831.944689  -9065.537495    170.764183                    
V 26  10695.962157    639.784823 -29365.673733       .103727                    
P 27   8133.661116 -14521.669738 -19985.373061    164.575862                    
V 27  13083.686809  23558.677091 -11585.384579       .026724                    
P 28  10758.126632 -22772.381708   8218.028309    -14.500529                    
V 28   8381.934159  -6158.246678 -29686.220002      -.006088                    
P 29 -22576.549634   5766.519249 -12610.072796    -67.991097                    
V 29 -15722.519691  -4599.240279  25836.385689       .071205                    
P 30 -18719.567382  16727.260066   8185.590800     62.040995                    
V 30   3624.642023 -10738.297456  29157.378888       .014574                    
P 31   6224.014055  25088.953212   6099.193702     -7.458211                    
V 31  -5348.615881  -5849.446490  30662.479369      -.014457                    
P 32  -2638.905217  20572.578398  17136.496966    216.536756                    
V 32 -14849.976768  14632.803847 -20238.258254       .098151                    
EOF
